[{"OBJECT_NAME":"STARLINK-3793","OBJECT_ID":"2022-045BB","EPOCH":"2026-03-09T12:30:55.941120","MEAN_MOTION":15.0884208,"ECCENTRICITY":0.00012382,"INCLINATION":53.2181,"RA_OF_ASC_NODE":179.9069,"ARG_OF_PERICENTER":93.1359,"MEAN_ANOMALY":266.9775,"EPHEMERIS_TYPE":0,"CLASSIFICATION_TYPE":"U","NORAD_CAT_ID":52380,"ELEMENT_SET_NO":999,"REV_AT_EPOCH":21603,"BSTAR":-5.1602336e-5,"MEAN_MOTION_DOT":-1.109e-5,"MEAN_MOTION_DDOT":0},{"OBJECT_NAME":"PEGASUS DEB","OBJECT_ID":"1994-029AFX","EPOCH":"2026-03-01T06:33:22.731264","MEAN_MOTION":14.85739755,"ECCENTRICITY":0.0106553,"INCLINATION":81.851,"RA_OF_ASC_NODE":257.2393,"ARG_OF_PERICENTER":271.4617,"MEAN_ANOMALY":87.4394,"EPHEMERIS_TYPE":0,"CLASSIFICATION_TYPE":"U","NORAD_CAT_ID":39924,"ELEMENT_SET_NO":999,"REV_AT_EPOCH":63095,"BSTAR":0.00041812,"MEAN_MOTION_DOT":4.045e-5,"MEAN_MOTION_DDOT":0}]
